KNACKSAT-2              
1 67683U 98067XZ  26168.60673955  .00040994  00000+0  49993-3 0  9996
2 67683  51.6314 292.3670 0009088 217.1010 142.9356 15.60014370 20344
INNOSAT 3 (RS92S0)      
1 64894U 25155U   26168.89596433  .00032928  00000+0  72495-3 0  9992
2 64894  97.4489 140.4088 0006640 149.3752 210.7885 15.43870508 81074
